start=new Date('2022-11-20T00:00:00.000Z').valueOf();
sats=[{"MEAN_MOTION_DOT":"0.00000570","CENTER_NAME":"EARTH","SITE":"AFWTR","FILE":"3663561","TLE_LINE1":"1 52550U 22051T   22323.76543064  .00000570  00000-0  53929-4 0  9998","LAUNCH_DATE":"2022-05-13","PERIOD":"95.438","SEMIMAJOR_AXIS":"6917.886","EPHEMERIS_TYPE":"0","OBJECT_NAME":"STARLINK-3965","PERIAPSIS":"537.880","INCLINATION":"53.2187","REF_FRAME":"TEME","ECCENTRICITY":"0.00027050","OBJECT_TYPE":"PAYLOAD","TIME_SYSTEM":"UTC","MEAN_MOTION_DDOT":"0.0000000000000","ARG_OF_PERICENTER":"48.5457","MEAN_MOTION":"15.08838130","RA_OF_ASC_NODE":"142.7281","CLASSIFICATION_TYPE":"U","ELEMENT_SET_NO":"999","TLE_LINE2":"2 52550  53.2187 142.7281 0002705  48.5457 311.5767 15.08838130 29397","EPOCH":"2022-11-19T18:22:13.207296","APOAPSIS":"541.622","NORAD_CAT_ID":"52550","BSTAR":"0.00005392900000","COUNTRY_CODE":"US","MEAN_ANOMALY":"311.5767","GP_ID":"218238224","MEAN_ELEMENT_THEORY":"SGP4","RCS_SIZE":"LARGE","REV_AT_EPOCH":"2939","OBJECT_ID":"2022-051T","DECAY_DATE":null},{"FILE":"3663561","TLE_LINE1":"1 52551U 22051U   22323.83902972  .00002048  00000-0  14679-3 0  9994","LAUNCH_DATE":"2022-05-13","CENTER_NAME":"EARTH","MEAN_MOTION_DOT":"0.00002048","SITE":"AFWTR","INCLINATION":"53.2188","REF_FRAME":"TEME","ECCENTRICITY":"0.00021280","OBJECT_TYPE":"PAYLOAD","TIME_SYSTEM":"UTC","PERIOD":"95.438","EPHEMERIS_TYPE":"0","SEMIMAJOR_AXIS":"6917.894","OBJECT_NAME":"STARLINK-3969","PERIAPSIS":"538.287","ARG_OF_PERICENTER":"49.3146","MEAN_MOTION":"15.08835478","RA_OF_ASC_NODE":"142.4020","CLASSIFICATION_TYPE":"U","MEAN_MOTION_DDOT":"0.0000000000000","COUNTRY_CODE":"US","MEAN_ANOMALY":"310.8031","MEAN_ELEMENT_THEORY":"SGP4","GP_ID":"218237980","RCS_SIZE":"LARGE","REV_AT_EPOCH":"2940","OBJECT_ID":"2022-051U","DECAY_DATE":null,"ELEMENT_SET_NO":"999","TLE_LINE2":"2 52551  53.2188 142.4020 0002128  49.3146 310.8031 15.08835478 29400","APOAPSIS":"541.231","EPOCH":"2022-11-19T20:08:12.167808","BSTAR":"0.00014679000000","NORAD_CAT_ID":"52551"},{"SEMIMAJOR_AXIS":"6917.900","EPHEMERIS_TYPE":"0","PERIOD":"95.438","PERIAPSIS":"538.101","OBJECT_NAME":"STARLINK-3966","ECCENTRICITY":"0.00024050","REF_FRAME":"TEME","INCLINATION":"53.2176","TIME_SYSTEM":"UTC","OBJECT_TYPE":"PAYLOAD","MEAN_MOTION_DOT":"0.00005262","CENTER_NAME":"EARTH","SITE":"AFWTR","TLE_LINE1":"1 52552U 22051V   22323.62191052  .00005262  00000-0  34850-3 0  9995","FILE":"3663561","LAUNCH_DATE":"2022-05-13","ELEMENT_SET_NO":"999","BSTAR":"0.00034850000000","NORAD_CAT_ID":"52552","APOAPSIS":"541.429","EPOCH":"2022-11-19T14:55:33.068928","TLE_LINE2":"2 52552  53.2176 143.3754 0002405  39.5309 320.5858 15.08833537 29377","MEAN_ANOMALY":"320.5858","COUNTRY_CODE":"US","OBJECT_ID":"2022-051V","DECAY_DATE":null,"REV_AT_EPOCH":"2937","RCS_SIZE":"LARGE","MEAN_ELEMENT_THEORY":"SGP4","GP_ID":"218237232","MEAN_MOTION_DDOT":"0.0000000000000","MEAN_MOTION":"15.08833537","ARG_OF_PERICENTER":"39.5309","CLASSIFICATION_TYPE":"U","RA_OF_ASC_NODE":"143.3754"},{"MEAN_MOTION_DDOT":"0.0000000000000","CLASSIFICATION_TYPE":"U","RA_OF_ASC_NODE":"142.7120","ARG_OF_PERICENTER":"44.9723","MEAN_MOTION":"15.08845418","APOAPSIS":"541.488","EPOCH":"2022-11-19T18:27:29.749248","BSTAR":"0.00013074000000","NORAD_CAT_ID":"52553","TLE_LINE2":"2 52553  53.2184 142.7120 0002543  44.9723 315.1474 15.08845418 29397","ELEMENT_SET_NO":"999","REV_AT_EPOCH":"2939","OBJECT_ID":"2022-051W","DECAY_DATE":null,"GP_ID":"218236983","MEAN_ELEMENT_THEORY":"SGP4","RCS_SIZE":"LARGE","MEAN_ANOMALY":"315.1474","COUNTRY_CODE":"US","SITE":"AFWTR","CENTER_NAME":"EARTH","MEAN_MOTION_DOT":"0.00001793","LAUNCH_DATE":"2022-05-13","TLE_LINE1":"1 52553U 22051W   22323.76909432  .00001793  00000-0  13074-3 0  9990","FILE":"3663561","PERIAPSIS":"537.970","OBJECT_NAME":"STARLINK-3858","SEMIMAJOR_AXIS":"6917.864","EPHEMERIS_TYPE":"0","PERIOD":"95.437","TIME_SYSTEM":"UTC","OBJECT_TYPE":"PAYLOAD","REF_FRAME":"TEME","ECCENTRICITY":"0.00025430","INCLINATION":"53.2184"},{"FILE":"3663561","TLE_LINE1":"1 52554U 22051X   22323.80727201 -.00000077  00000-0  13261-4 0  9992","LAUNCH_DATE":"2022-05-13","MEAN_MOTION_DOT":"-0.00000077","CENTER_NAME":"EARTH","SITE":"AFWTR","INCLINATION":"53.2161","ECCENTRICITY":"0.00022810","REF_FRAME":"TEME","OBJECT_TYPE":"PAYLOAD","TIME_SYSTEM":"UTC","PERIOD":"95.437","EPHEMERIS_TYPE":"0","SEMIMAJOR_AXIS":"6917.840","OBJECT_NAME":"STARLINK-3770","PERIAPSIS":"538.127","MEAN_MOTION":"15.08853261","ARG_OF_PERICENTER":"47.7068","RA_OF_ASC_NODE":"147.5481","CLASSIFICATION_TYPE":"U","MEAN_MOTION_DDOT":"0.0000000000000","COUNTRY_CODE":"US","MEAN_ANOMALY":"312.4117","RCS_SIZE":"LARGE","GP_ID":"218237725","MEAN_ELEMENT_THEORY":"SGP4","DECAY_DATE":null,"OBJECT_ID":"2022-051X","REV_AT_EPOCH":"2932","ELEMENT_SET_NO":"999","TLE_LINE2":"2 52554  53.2161 147.5481 0002281  47.7068 312.4117 15.08853261 29320","BSTAR":"0.00001326100000","NORAD_CAT_ID":"52554","APOAPSIS":"541.283","EPOCH":"2022-11-19T19:22:28.301664"},{"RCS_SIZE":"LARGE","GP_ID":"218238480","MEAN_ELEMENT_THEORY":"SGP4","DECAY_DATE":null,"OBJECT_ID":"2022-051Y","REV_AT_EPOCH":"2939","COUNTRY_CODE":"US","MEAN_ANOMALY":"311.3389","TLE_LINE2":"2 52555  53.2181 142.7408 0001806  48.7759 311.3389 15.08845951 29392","BSTAR":"-0.00002767200000","NORAD_CAT_ID":"52555","EPOCH":"2022-11-19T18:16:53.723424","APOAPSIS":"540.977","ELEMENT_SET_NO":"999","RA_OF_ASC_NODE":"142.7408","CLASSIFICATION_TYPE":"U","MEAN_MOTION":"15.08845951","ARG_OF_PERICENTER":"48.7759","MEAN_MOTION_DDOT":"0.0000000000000","OBJECT_TYPE":"PAYLOAD","TIME_SYSTEM":"UTC","INCLINATION":"53.2181","ECCENTRICITY":"0.00018060","REF_FRAME":"TEME","OBJECT_NAME":"STARLINK-3949","PERIAPSIS":"538.478","PERIOD":"95.437","EPHEMERIS_TYPE":"0","SEMIMAJOR_AXIS":"6917.862","LAUNCH_DATE":"2022-05-13","FILE":"3663561","TLE_LINE1":"1 52555U 22051Y   22323.76173291 -.00000729  00000-0 -27672-4 0  9998","SITE":"AFWTR","MEAN_MOTION_DOT":"-0.00000729","CENTER_NAME":"EARTH"},{"MEAN_MOTION_DOT":"0.00004627","CENTER_NAME":"EARTH","SITE":"AFWTR","TLE_LINE1":"1 52556U 22051Z   22323.78457466  .00004627  00000-0  30421-3 0  9994","FILE":"3663561","LAUNCH_DATE":"2022-05-13","SEMIMAJOR_AXIS":"6916.239","EPHEMERIS_TYPE":"0","PERIOD":"95.404","PERIAPSIS":"537.264","OBJECT_NAME":"STARLINK-3763","REF_FRAME":"TEME","ECCENTRICITY":"0.00012140","INCLINATION":"53.2158","TIME_SYSTEM":"UTC","OBJECT_TYPE":"PAYLOAD","MEAN_MOTION_DDOT":"0.0000000000000","ARG_OF_PERICENTER":"116.1774","MEAN_MOTION":"15.09377241","CLASSIFICATION_TYPE":"U","RA_OF_ASC_NODE":"147.4581","ELEMENT_SET_NO":"999","EPOCH":"2022-11-19T18:49:47.250624","APOAPSIS":"538.943","BSTAR":"0.00030421000000","NORAD_CAT_ID":"52556","TLE_LINE2":"2 52556  53.2158 147.4581 0001214 116.1774 243.9343 15.09377241 29327","MEAN_ANOMALY":"243.9343","COUNTRY_CODE":"US","REV_AT_EPOCH":"2932","DECAY_DATE":null,"OBJECT_ID":"2022-051Z","MEAN_ELEMENT_THEORY":"SGP4","GP_ID":"218236733","RCS_SIZE":"LARGE"},{"MEAN_ANOMALY":"304.2595","COUNTRY_CODE":"US","OBJECT_ID":"2022-051AA","DECAY_DATE":null,"REV_AT_EPOCH":"2931","RCS_SIZE":"LARGE","MEAN_ELEMENT_THEORY":"SGP4","GP_ID":"218206462","ELEMENT_SET_NO":"999","BSTAR":"0.00017266000000","NORAD_CAT_ID":"52557","EPOCH":"2022-11-19T05:17:54.972096","APOAPSIS":"540.950","TLE_LINE2":"2 52557  53.2189 145.1809 0001759  55.8564 304.2595 15.08844049 29313","MEAN_MOTION":"15.08844049","ARG_OF_PERICENTER":"55.8564","CLASSIFICATION_TYPE":"U","RA_OF_ASC_NODE":"145.1809","MEAN_MOTION_DDOT":"0.0000000000000","ECCENTRICITY":"0.00017590","REF_FRAME":"TEME","INCLINATION":"53.2189","TIME_SYSTEM":"UTC","OBJECT_TYPE":"PAYLOAD","SEMIMAJOR_AXIS":"6917.868","EPHEMERIS_TYPE":"0","PERIOD":"95.437","PERIAPSIS":"538.516","OBJECT_NAME":"STARLINK-3943","TLE_LINE1":"1 52557U 22051AA  22323.22077514  .00002461  00000-0  17266-3 0  9992","FILE":"3663316","LAUNCH_DATE":"2022-05-13","CENTER_NAME":"EARTH","MEAN_MOTION_DOT":"0.00002461","SITE":"AFWTR"},{"OBJECT_NAME":"STARLINK-3954","PERIAPSIS":"538.225","PERIOD":"95.438","SEMIMAJOR_AXIS":"6917.878","EPHEMERIS_TYPE":"0","OBJECT_TYPE":"PAYLOAD","TIME_SYSTEM":"UTC","INCLINATION":"53.2160","ECCENTRICITY":"0.00021940","REF_FRAME":"TEME","SITE":"AFWTR","MEAN_MOTION_DOT":"-0.00000075","CENTER_NAME":"EARTH","LAUNCH_DATE":"2022-05-13","FILE":"3663561","TLE_LINE1":"1 52558U 22051AB  22323.75161311 -.00000075  00000-0  13433-4 0  9993","TLE_LINE2":"2 52558  53.2160 132.7825 0002194  47.2848 312.8329 15.08840809 29520","NORAD_CAT_ID":"52558","BSTAR":"0.00001343300000","EPOCH":"2022-11-19T18:02:19.372704","APOAPSIS":"541.261","ELEMENT_SET_NO":"999","RCS_SIZE":"LARGE","GP_ID":"218238225","MEAN_ELEMENT_THEORY":"SGP4","OBJECT_ID":"2022-051AB","DECAY_DATE":null,"REV_AT_EPOCH":"2952","COUNTRY_CODE":"US","MEAN_ANOMALY":"312.8329","MEAN_MOTION_DDOT":"0.0000000000000","RA_OF_ASC_NODE":"132.7825","CLASSIFICATION_TYPE":"U","MEAN_MOTION":"15.08840809","ARG_OF_PERICENTER":"47.2848"},{"TIME_SYSTEM":"UTC","OBJECT_TYPE":"PAYLOAD","ECCENTRICITY":"0.00013860","REF_FRAME":"TEME","INCLINATION":"53.2166","PERIAPSIS":"538.767","OBJECT_NAME":"STARLINK-3953","EPHEMERIS_TYPE":"0","SEMIMAJOR_AXIS":"6917.861","PERIOD":"95.437","LAUNCH_DATE":"2022-05-13","TLE_LINE1":"1 52559U 22051AC  22323.74521462  .00001119  00000-0  88402-4 0  9997","FILE":"3663561","SITE":"AFWTR","CENTER_NAME":"EARTH","MEAN_MOTION_DOT":"0.00001119","OBJECT_ID":"2022-051AC","DECAY_DATE":null,"REV_AT_EPOCH":"2952","RCS_SIZE":"LARGE","MEAN_ELEMENT_THEORY":"SGP4","GP_ID":"218237981","MEAN_ANOMALY":"300.7901","COUNTRY_CODE":"US","BSTAR":"0.00008840200000","NORAD_CAT_ID":"52559","APOAPSIS":"540.685","EPOCH":"2022-11-19T17:53:06.543168","TLE_LINE2":"2 52559  53.2166 132.8145 0001386  59.3228 300.7901 15.08846273 29524","ELEMENT_SET_NO":"999","CLASSIFICATION_TYPE":"U","RA_OF_ASC_NODE":"132.8145","MEAN_MOTION":"15.08846273","ARG_OF_PERICENTER":"59.3228","MEAN_MOTION_DDOT":"0.0000000000000"}];
